STARLINK-3891           
1 52650C 22052BE  22360.12270833 -.00004565  00000-0 -28631-3 0  3605
2 52650  53.2185  99.5141 0002607  42.5854 346.1269 15.08834000    17
STARLINK-4004           
1 52656C 22053A   22360.12340278 -.00005284  00000-0 -33127-3 0  3608
2 52656  53.2174   4.5078 0002379  33.4716 146.6690 15.08847758    13
STARLINK-4084           
1 52657C 22053B   22360.11715278 -.00011712  00000-0 -73439-3 0  3607
2 52657  53.2177   4.5352 0002931  20.4915  85.6943 15.08848490    10
STARLINK-4082           
1 52658C 22053C   22360.11993056  .00011704  00000-0  73384-3 0  3608
2 52658  53.2174   4.5203 0003357  18.2731 123.0233 15.08827392    14
STARLINK-3960           
1 52659C 22053D   22360.11784722 -.00014617  00000-0 -91677-3 0  3600
2 52659  53.2186   4.5272 0001446  53.5300  71.2305 15.08846927    14
STARLINK-4081           
1 52660C 22053E   22360.11645833  .00012296  00000-0  77098-3 0  3601
2 52660  53.2180   4.5311 0002953  27.4535 134.9654 15.08827050    18
STARLINK-4042           
1 52661C 22053F   22360.12201389 -.00002568  00000-0 -16099-3 0  3604
2 52661  53.2180   4.5114 0002765  24.6403 187.9612 15.08845621    10
STARLINK-4044           
1 52662C 22053G   22360.12340278  .00011789  00000-0  73914-3 0  3608
2 52662  53.2131   4.5204 0002207  35.0478 225.1075 15.08830105    15
STARLINK-4037           
1 52663C 22053H   22360.12201389  .00007980  00000-0  50037-3 0  3607
2 52663  53.2162   4.5215 0003056  20.7933 251.8958 15.08829680    14
STARLINK-4070           
1 52664C 22053J   22360.12201389  .00012450  00000-0  78058-3 0  3609
2 52664  53.2173   4.5273 0002800  26.2043 206.4015 15.08828787    17
STARLINK-4064           
1 52665C 22053K   22360.12340278 -.00005513  00000-0 -34588-3 0  3605
2 52665  53.2148   4.5187 0002541  30.7294 309.4272 15.08826392    13
STARLINK-4079           
1 52666C 22053L   22360.12131944 -.00010070  00000-0 -63156-3 0  3601
2 52666  53.2161   4.5246 0002478  28.1326 260.7025 15.08842563    14
STARLINK-4076           
1 52667C 22053M   22360.12340278  .00010376  00000-0  65058-3 0  3604
2 52667  53.2172   4.5201 0002496  27.0383 333.1239 15.08831526    18
STARLINK-4067           
1 52668C 22053N   22360.12340278  .00010902  00000-0  68367-3 0  3606
2 52668  53.2169   4.5213 0002861  21.7825 298.3731 15.08824481    17
STARLINK-3972           
1 52669C 22053P   22360.11784722  .00010418  00000-0  65324-3 0  3604
2 52669  53.2140   4.5463 0001883  38.4626 351.4666 15.08829826    17
STARLINK-4075           
1 52670C 22053Q   22360.11784722  .00009407  00000-0  58987-3 0  3609
2 52670  53.2145   4.5422 0002088  42.0748 262.6932 15.08830233    16
STARLINK-4071           
1 52671C 22053R   22360.12201389 -.00014540  00000-0 -91181-3 0  3603
2 52671  53.2174   4.5225 0002479  27.8038  44.8120 15.08849641    19
STARLINK-4073           
1 52672C 22053S   22360.12340278 -.00014214  00000-0 -89121-3 0  3604
2 52672  53.2174   4.5194 0003010  24.6211 355.5063 15.08855424    19
STARLINK-3976           
1 52673C 22053T   22360.11993056  .00011056  00000-0  69333-3 0  3604
2 52673  53.2190   4.5311 0002936  19.7870  81.4823 15.08822657    12
STARLINK-3936           
1 52674C 22053U   22360.12201389 -.00011493  00000-0 -72069-3 0  3604
2 52674  53.2167   4.5203 0002652  22.4518  10.1364 15.08848659    11
STARLINK-3934           
1 52675C 22053V   22360.11576389  .00001678  00000-0  10517-3 0  3601
2 52675  53.2181 354.5389 0002308  39.3331  54.2666 15.08847222    18
STARLINK-4006           
1 52676C 22053W   22360.12340278  .00010983  00000-0  68873-3 0  3606
2 52676  53.2181   4.5170 0002363  32.7014  67.4568 15.08825857    12
STARLINK-4028           
1 52677C 22053X   22360.12409722 -.00004250  00000-0 -26650-3 0  3606
2 52677  53.2172 354.4998 0002643  27.9974 150.9490 15.08844342    12
STARLINK-4074           
1 52678C 22053Y   22360.11645833 -.00004339  00000-0 -27206-3 0  3607
2 52678  53.2174 354.5387 0002663  33.4145  58.7942 15.08842371    19
STARLINK-4031           
1 52679C 22053Z   22360.12270833 -.00013522  00000-0 -84790-3 0  3608
2 52679  53.2172 354.5136 0002190  32.5997 198.7561 15.08851034    18
STARLINK-3774           
1 52680C 22053AA  22360.11993056 -.00012543  00000-0 -78643-3 0  3600
2 52680  53.2165 354.5140 0002867  25.7641 110.5044 15.08854086    16
STARLINK-4068           
1 52681C 22053AB  22360.12340278 -.00014453  00000-0 -90644-3 0  3601
2 52681  53.2190 354.5028 0002976  23.2042 231.9552 15.08843866    15
STARLINK-4017           
1 52682C 22053AC  22360.12201389 -.00011287  00000-0 -70778-3 0  3609
2 52682  53.2188 354.5086 0002861  24.2324 163.3669 15.08845426    15
STARLINK-4039           
1 52683C 22053AD  22360.11923611 -.00011670  00000-0 -73194-3 0  3609
2 52683  53.2192 354.5245 0002555  28.6066 243.9176 15.08840505    10
STARLINK-4014           
1 52684C 22053AE  22360.12409722  .00018397  00000-0  11540-2 0  3600
2 52684  53.2177 354.5008 0002770  23.0814 195.8774 15.08805139    13
STARLINK-4029           
1 52685C 22053AF  22360.11923611 -.00006433  00000-0 -40337-3 0  3605
2 52685  53.2180 354.5250 0002920  24.5693 287.9483 15.08844577    14
STARLINK-4005           
1 52686C 22053AG  22360.12409722  .00011652  00000-0  73096-3 0  3604
2 52686  53.2179 354.5042 0002840  30.9305 248.0234 15.08810271    10
STARLINK-3981           
1 52687C 22053AH  22360.12340278 -.00012256  00000-0 -76855-3 0  3604
2 52687  53.2145 354.5174 0002493  33.3970 321.7573 15.08847976    16
STARLINK-4032           
1 52688C 22053AJ  22360.12270833  .00013434  00000-0  84242-3 0  3600
2 52688  53.2184 354.5094 0003030  26.0749 280.1341 15.08822892    13
STARLINK-4078           
1 52689C 22053AK  22360.12062500  .00012215  00000-0  76627-3 0  3605
2 52689  53.2157 354.5352 0002710  30.0003  10.1353 15.08811186    11
STARLINK-4035           
1 52690C 22053AL  22360.12340278  .00012886  00000-0  80809-3 0  3609
2 52690  53.2152 354.5167 0002305  42.9111 272.2741 15.08823051    10
STARLINK-3945           
1 52691C 22053AM  22360.11993056  .00001792  00000-0  11237-3 0  3600
2 52691  53.2168 354.5329 0002400  22.2033  34.0912 15.08837752    15
STARLINK-3993           
1 52692C 22053AN  22360.12340278  .00012791  00000-0  80210-3 0  3602
2 52692  53.2186 354.5143 0002484  33.5566 341.6169 15.08822271    19
STARLINK-3946           
1 52693C 22053AP  22360.11923611 -.00007222  00000-0 -45291-3 0  3605
2 52693  53.2166 354.5372 0002677  29.6435  62.8874 15.08840917    19
STARLINK-4072           
1 52694C 22053AQ  22360.12201389 -.00007229  00000-0 -45323-3 0  3601
2 52694  53.2158 354.5186 0002164  40.3380 347.2355 15.08853083    16
STARLINK-4041           
1 52695C 22053AR  22360.11923611 -.00002253  00000-0 -14123-3 0  3606
2 52695  53.2162 359.5416 0002485  26.0043  33.8006 15.08846533    19
STARLINK-4025           
1 52696C 22053AS  22360.11993056  .00011732  00000-0  73556-3 0  3602
2 52696  53.2168 354.5327 0002865  22.0271  54.2589 15.08829679    18
STARLINK-4018           
1 52697C 22053AT  22360.11645833 -.00017180  00000-0 -10773-2 0  3606
2 52697  53.2145 359.5485 0002148  40.4805 324.2221 15.08853816    18
STARLINK-4030           
1 52698C 22053AU  22360.11784722 -.00013560  00000-0 -85042-3 0  3608
2 52698  53.2178 359.5375 0003070  22.0140 290.2543 15.08842830    19
STARLINK-3987           
1 52699C 22053AV  22360.12270833 -.00005199  00000-0 -32608-3 0  3602
2 52699  53.2169 349.5041 0002960  22.2273  91.4835 15.08836252    11
STARLINK-4034           
1 52700C 22053AW  22360.12270833  .00007332  00000-0  45979-3 0  3609
2 52700  53.2178 359.5113 0002645  28.9413 349.7624 15.08825687    19
STARLINK-4003           
1 52701C 22053AX  22360.12062500 -.00002964  00000-0 -18590-3 0  3607
2 52701  53.2177 344.5336 0002648  27.4977 167.5765 15.08835572    18
STARLINK-4033           
1 52702C 22053AY  22360.11645833 -.00007924  00000-0 -49681-3 0  3609
2 52702  53.2184 359.5500 0002643  26.6831 358.0405 15.08850010    13
STARLINK-4020           
1 52703C 22053AZ  22360.11923611  .00011953  00000-0  74971-3 0  3608
2 52703  53.2166 344.5367 0002516  28.4407 219.0961 15.08816494    18
STARLINK-3999           
1 52704C 22053BA  22360.12062500 -.00006144  00000-0 -38519-3 0  3607
2 52704  53.2176 344.5318 0002458  25.9759 149.0556 15.08849595    13
STARLINK-3844           
1 52705C 22053BB  22360.12409722  .00001158  00000-0  72624-4 0  3603
2 52705  53.2144 344.5167 0003032  25.2751 228.6534 15.08841953    15
STARLINK-3970           
1 52706C 22053BC  22360.11923611 -.00014027  00000-0 -87964-3 0  3604
2 52706  53.2160 344.5384 0003013  17.3389 190.1819 15.08848163    12
STARLINK-4007           
1 52707C 22053BD  22360.12340278  .00011806  00000-0  74038-3 0  3606
2 52707  53.2181 344.5200 0002760  22.4283 262.5475 15.08821905    18
STARLINK-3962           
1 52708C 22053BE  22360.12409722 -.00005894  00000-0 -36956-3 0  3606
2 52708  53.2166 344.5083 0002281  43.0140  65.7085 15.08846611    11
STARLINK-4091           
1 52830C 22062A   22360.11993056  .00019501  00000-0  12229-2 0  3603
2 52830  53.2149 244.5138 0002504  32.7833  88.5097 15.08815589    16
STARLINK-4089           
1 52831C 22062B   22360.12131944 -.00002821  00000-0 -17692-3 0  3604
2 52831  53.2156 244.5159 0001507  66.3744   2.4502 15.08833120    11
STARLINK-4083           
1 52832C 22062C   22360.12340278  .00019555  00000-0  12261-2 0  3603
2 52832  53.2159 244.5076 0002877  29.9152  70.2206 15.08820341    17
STARLINK-4086           
1 52833C 22062D   22360.12131944  .00019684  00000-0  12344-2 0  3607
2 52833  53.2168 244.5175 0002372  34.7940  74.0489 15.08816256    12
STARLINK-4108           
1 52834C 22062E   22360.12201389  .00017286  00000-0  10841-2 0  3605
2 52834  53.2144 244.5079 0002344  35.0157 117.6066 15.08814592    19
